{
  "type": "FeatureCollection",
  "features": [
    {
      "type": "Feature",
      "properties": {
        "norad_id": 47052,
        "name": "COSMOS 2251 DEB",
        "group": "cosmos-2251-debris",
        "lat": 33.008740704401525,
        "lon": -23.003279678294337,
        "alt_km": 729.5848200270257,
        "timestamp": "2025-12-20T09:36:02.047702+00:00",
        "meta_object_name": "COSMOS 2251 DEB",
        "meta_object_id": "1993-036BXG",
        "meta_epoch": "2025-12-13T17:42:34.547904",
        "meta_mean_motion": 14.35482778,
        "meta_eccentricity": 0.00580984,
        "meta_inclination": 74.0478,
        "meta_ra_of_asc_node": 338.4955,
        "meta_arg_of_pericenter": 52.4094,
        "meta_mean_anomaly": 127.807,
        "meta_ephemeris_type": 0,
        "meta_classification_type": "U",
        "meta_norad_cat_id": 47052,
        "meta_element_set_no": 999,
        "meta_rev_at_epoch": 61803,
        "meta_bstar": 0.00037288685,
        "meta_mean_motion_dot": 1.067e-05,
        "meta_mean_motion_ddot": 0,
        "tle_line1": "1 47052U 93036BXG 25347.73789986  .00001067  00000+0  37289-3 0  9992",
        "tle_line2": "2 47052  74.0478 338.4955 0058098  52.4094 127.8070 14.35482778618033"
      },
      "geometry": {
        "type": "Point",
        "coordinates": [
          -23.003279678294337,
          33.008740704401525
        ]
      }
    },
    {
      "type": "Feature",
      "properties": {
        "norad_id": 47053,
        "name": "COSMOS 2251 DEB",
        "group": "cosmos-2251-debris",
        "lat": -54.27859092141495,
        "lon": 85.0809842056691,
        "alt_km": 1322.2092380212544,
        "timestamp": "2025-12-20T09:36:02.047712+00:00",
        "meta_object_name": "COSMOS 2251 DEB",
        "meta_object_id": "1993-036BXH",
        "meta_epoch": "2025-12-16T00:20:00.787200",
        "meta_mean_motion": 13.59681102,
        "meta_eccentricity": 0.03769313,
        "meta_inclination": 74.0586,
        "meta_ra_of_asc_node": 248.7599,
        "meta_arg_of_pericenter": 61.5734,
        "meta_mean_anomaly": 314.7883,
        "meta_ephemeris_type": 0,
        "meta_classification_type": "U",
        "meta_norad_cat_id": 47053,
        "meta_element_set_no": 999,
        "meta_rev_at_epoch": 28933,
        "meta_bstar": 0.0014494241,
        "meta_mean_motion_dot": 1.7e-05,
        "meta_mean_motion_ddot": 0,
        "tle_line1": "1 47053U 93036BXH 25350.01389800  .00001700  00000+0  14494-2 0  9995",
        "tle_line2": "2 47053  74.0586 248.7599 0376931  61.5734 314.7883 13.59681102289335"
      },
      "geometry": {
        "type": "Point",
        "coordinates": [
          85.0809842056691,
          -54.27859092141495
        ]
      }
    },
    {
      "type": "Feature",
      "properties": {
        "norad_id": 47059,
        "name": "COSMOS 2251 DEB",
        "group": "cosmos-2251-debris",
        "lat": 1.1383874197118338,
        "lon": -140.19179955870922,
        "alt_km": 520.6375999302436,
        "timestamp": "2025-12-20T09:36:02.047723+00:00",
        "meta_object_name": "COSMOS 2251 DEB",
        "meta_object_id": "1993-036BXP",
        "meta_epoch": "2025-12-16T01:10:48.054720",
        "meta_mean_motion": 15.13144812,
        "meta_eccentricity": 0.00128667,
        "meta_inclination": 73.98,
        "meta_ra_of_asc_node": 228.534,
        "meta_arg_of_pericenter": 42.2566,
        "meta_mean_anomaly": 26.5019,
        "meta_ephemeris_type": 0,
        "meta_classification_type": "U",
        "meta_norad_cat_id": 47059,
        "meta_element_set_no": 999,
        "meta_rev_at_epoch": 8355,
        "meta_bstar": 0.0018804977,
        "meta_mean_motion_dot": 0.00033522,
        "meta_mean_motion_ddot": 0,
        "tle_line1": "1 47059U 93036BXP 25350.04916730  .00033522  00000+0  18805-2 0  9999",
        "tle_line2": "2 47059  73.9800 228.5340 0012866  42.2566  26.5019 15.13144812 83550"
      },
      "geometry": {
        "type": "Point",
        "coordinates": [
          -140.19179955870922,
          1.1383874197118338
        ]
      }
    },
    {
      "type": "Feature",
      "properties": {
        "norad_id": 47062,
        "name": "COSMOS 2251 DEB",
        "group": "cosmos-2251-debris",
        "lat": 68.01835460812482,
        "lon": -159.43939059959956,
        "alt_km": 954.3960751678578,
        "timestamp": "2025-12-20T09:36:02.047733+00:00",
        "meta_object_name": "COSMOS 2251 DEB",
        "meta_object_id": "1993-036BXS",
        "meta_epoch": "2025-12-13T23:56:30.676992",
        "meta_mean_motion": 13.71952164,
        "meta_eccentricity": 0.03233862,
        "meta_inclination": 74.0831,
        "meta_ra_of_asc_node": 76.1003,
        "meta_arg_of_pericenter": 201.6929,
        "meta_mean_anomaly": 337.1469,
        "meta_ephemeris_type": 0,
        "meta_classification_type": "U",
        "meta_norad_cat_id": 47062,
        "meta_element_set_no": 999,
        "meta_rev_at_epoch": 55619,
        "meta_bstar": 0.0017198262,
        "meta_mean_motion_dot": 2.244e-05,
        "meta_mean_motion_ddot": 0,
        "tle_line1": "1 47062U 93036BXS 25347.99757728  .00002244  00000+0  17198-2 0  9994",
        "tle_line2": "2 47062  74.0831  76.1003 0323386 201.6929 337.1469 13.71952164556193"
      },
      "geometry": {
        "type": "Point",
        "coordinates": [
          -159.43939059959956,
          68.01835460812482
        ]
      }
    },
    {
      "type": "Feature",
      "properties": {
        "norad_id": 47068,
        "name": "COSMOS 2251 DEB",
        "group": "cosmos-2251-debris",
        "lat": -51.40262341599331,
        "lon": 167.96818411856938,
        "alt_km": 710.6258301885173,
        "timestamp": "2025-12-20T09:36:02.047743+00:00",
        "meta_object_name": "COSMOS 2251 DEB",
        "meta_object_id": "1993-036BXY",
        "meta_epoch": "2025-12-18T06:37:53.129568",
        "meta_mean_motion": 14.53187379,
        "meta_eccentricity": 0.00182878,
        "meta_inclination": 74.0232,
        "meta_ra_of_asc_node": 193.012,
        "meta_arg_of_pericenter": 279.6749,
        "meta_mean_anomaly": 80.2347,
        "meta_ephemeris_type": 0,
        "meta_classification_type": "U",
        "meta_norad_cat_id": 47068,
        "meta_element_set_no": 999,
        "meta_rev_at_epoch": 61837,
        "meta_bstar": 0.00067889,
        "meta_mean_motion_dot": 2.791e-05,
        "meta_mean_motion_ddot": 0,
        "tle_line1": "1 47068U 93036BXY 25352.27630937  .00002791  00000+0  67889-3 0  9999",
        "tle_line2": "2 47068  74.0232 193.0120 0018287 279.6749  80.2347 14.53187379618378"
      },
      "geometry": {
        "type": "Point",
        "coordinates": [
          167.96818411856938,
          -51.40262341599331
        ]
      }
    },
    {
      "type": "Feature",
      "properties": {
        "norad_id": 47073,
        "name": "COSMOS 2251 DEB",
        "group": "cosmos-2251-debris",
        "lat": -33.14251742274566,
        "lon": 19.254234829027084,
        "alt_km": 767.8893927112422,
        "timestamp": "2025-12-20T09:36:02.047778+00:00",
        "meta_object_name": "COSMOS 2251 DEB",
        "meta_object_id": "1993-036BYD",
        "meta_epoch": "2025-12-15T07:13:18.345792",
        "meta_mean_motion": 14.04726954,
        "meta_eccentricity": 0.01614948,
        "meta_inclination": 74.0808,
        "meta_ra_of_asc_node": 197.3835,
        "meta_arg_of_pericenter": 235.0635,
        "meta_mean_anomaly": 123.5242,
        "meta_ephemeris_type": 0,
        "meta_classification_type": "U",
        "meta_norad_cat_id": 47073,
        "meta_element_set_no": 999,
        "meta_rev_at_epoch": 60397,
        "meta_bstar": 0.00047491463,
        "meta_mean_motion_dot": 8.3e-06,
        "meta_mean_motion_ddot": 0,
        "tle_line1": "1 47073U 93036BYD 25349.30090678  .00000830  00000+0  47491-3 0  9996",
        "tle_line2": "2 47073  74.0808 197.3835 0161494 235.0635 123.5242 14.04726954603971"
      },
      "geometry": {
        "type": "Point",
        "coordinates": [
          19.254234829027084,
          -33.14251742274566
        ]
      }
    },
    {
      "type": "Feature",
      "properties": {
        "norad_id": 47074,
        "name": "COSMOS 2251 DEB",
        "group": "cosmos-2251-debris",
        "lat": 38.802929353938566,
        "lon": 101.4454763074206,
        "alt_km": 873.0997324404952,
        "timestamp": "2025-12-20T09:36:02.047790+00:00",
        "meta_object_name": "COSMOS 2251 DEB",
        "meta_object_id": "1993-036BYE",
        "meta_epoch": "2025-12-16T13:32:26.153376",
        "meta_mean_motion": 14.35650419,
        "meta_eccentricity": 0.01449048,
        "meta_inclination": 74.0928,
        "meta_ra_of_asc_node": 301.7157,
        "meta_arg_of_pericenter": 328.8455,
        "meta_mean_anomaly": 153.2821,
        "meta_ephemeris_type": 0,
        "meta_classification_type": "U",
        "meta_norad_cat_id": 47074,
        "meta_element_set_no": 999,
        "meta_rev_at_epoch": 2737,
        "meta_bstar": 0.0011411657,
        "meta_mean_motion_dot": 3.683e-05,
        "meta_mean_motion_ddot": 0,
        "tle_line1": "1 47074U 93036BYE 25350.56419159  .00003683  00000+0  11412-2 0  9998",
        "tle_line2": "2 47074  74.0928 301.7157 0144904 328.8455 153.2821 14.35650419 27374"
      },
      "geometry": {
        "type": "Point",
        "coordinates": [
          101.4454763074206,
          38.802929353938566
        ]
      }
    }
  ]
}